CIC_OEM_VERS = 2.0
CREATION_DATE = 2025-03-13T18:00:38.253046
ORIGINATOR = ISAE-SUPAERO


META_START
OBJECT_NAME = BLUE1
OBJECT_ID = BLUE1
CENTER_NAME = Earth
REF_FRAME = EME2000
TIME_SYSTEM = UTC
START_TIME = 2025-03-13T00:00:00.000
USEABLE_START_TIME = 2025-03-13T00:00:00.000
USEABLE_STOP_TIME = 2025-03-13T23:55:00.000
STOP_TIME = 2025-03-13T23:55:00.000
INTERPOLATION = lagrange
INTERPOLATION_DEGREE = 5
META_STOP



60747 0.0 -6419.139700000001 -2718.4689 -518.64032 0.079536317 1.1506327 -7.4521999
60747 420.0 -5737.9331 -1976.759 -3489.606 3.1055486 2.3194702 -6.4525774
60747 840.0 -3900.6802000000002 -836.68016 -5756.307900000001 5.492011000000001 3.0161514 -4.1577605
60747 1260.0 -1280.5976 471.36213000000004 -6865.0951 6.7717089 3.1063679000000004 -1.0319328
60747 1680.0 1596.1793 1684.7266000000002 -6592.8236 6.6929944 2.5723725 2.3088851
60747 2100.0 4150.5936 2558.2871 -4988.4102 5.2594583 1.5143169 5.203462000000001
60747 2520.0 5860.8550000000005 2911.7624 -2368.2481000000002 2.7392395 0.13751491999999998 7.0590177
60747 2940.0 6368.9687 2668.1347 737.9420500000001 -0.36577129 -1.2790312 7.4730951
60747 3360.0 5562.018 1873.6671000000001 3690.7911000000004 -3.4107606 -2.4381207 6.3391649
60747 3780.0 3603.1653 691.18008 5877.0504 -5.7523937 -3.0934418999999997 3.8879752
60747 4200.0 898.42665 -634.44523 6843.828 -6.9002882 -3.1080786 0.63630824
60747 4620.0 -1992.1178 -1829.3385 6394.6957999999995 -6.623103100000001 -2.4825657000000003 -2.7351186
60747 5040.0 -4473.6453 -2648.3937 4627.6332 -4.9887886 -1.3505192 -5.5301553000000006
60747 5460.0 -6040.2219000000005 -2925.6655 1910.8065000000001 -2.3439018000000003 0.051856921 -7.1803423
60747 5880.0 -6377.5770999999995 -2607.4366 -1196.5599 0.76200824 1.4359301 -7.3602586
60747 6300.0 -5424.469400000001 -1761.5102 -4061.8025000000002 3.6959004 2.5221211 -6.0502606
60747 6720.0 -3379.5954 -560.9616 -6107.9986 5.8739737 3.0967677 -3.5280309
60747 7140.0 -656.7489300000001 752.15327 -6925.8863 6.870910100000001 3.049475 -0.29954058
60747 7560.0 2197.6076000000003 1914.1064 -6349.57 6.488292 2.3883173 2.9999655
60747 7980.0 4607.6374000000005 2689.393 -4488.2892 4.7874683000000005 1.238079 5.7140803
60747 8400.0 6078.7327000000005 2916.8448 -1711.3747 2.0917725000000003 -0.17596414999999999 7.2809641
60747 8820.0 6300.8442000000005 2545.0950000000003 1417.215 -1.0559971000000001 -1.5646860999999999 7.3550693
60747 9240.0 5220.666700000001 1647.3721 4251.6145 -3.9981234 -2.6352403 5.9030645999999996
60747 9660.0 3059.14 408.43171 6202.947700000001 -6.1129901 -3.1604038 3.2255455000000004
60747 10080.0 264.6034 -915.11922 6867.929400000001 -6.9599933 -3.031521 -0.11292159
60747 10500.0 -2584.8916 -2050.1730000000002 6113.2124 -6.3719030000000005 -2.2793989999999997 -3.4155824
60747 10920.0 -4904.0833 -2764.4242999999997 4099.7657 -4.4808737 -1.0634785999999998 -6.0026745
60747 11340.0 -6221.3414 -2913.7713 1245.7431000000001 -1.6855276 0.36332865 -7.3502671
60747 11760.0 -6274.062400000001 -2470.7812999999996 -1862.7803000000001 1.4355715 1.7083836 -7.1964898
60747 12180.0 -5058.8432999999995 -1528.3763999999999 -4594.5005 4.2494457 2.7014299999999998 -5.5895615
60747 12600.0 -2826.3709 -278.56439 -6400.4706 6.1990093 3.1482406000000003 -2.8642141000000003
60747 13020.0 -27.036114 1027.1191 -6919.4107 6.9038919 2.9631232 0.43646912
60747 13440.0 2777.2894 2126.202 -6044.2135 6.2204387 2.1800518 3.6631022
60747 13860.0 5019.2496 2795.0367 -3943.7608 4.2678697 0.9478669200000001 6.169552800000001
60747 14280.0 6236.3927 2893.3963 -1037.2687 1.4228812 -0.48975377 7.4308208
60747 14700.0 6170.1027 2396.4115 2082.4861 -1.7358797 -1.8364894 7.163177800000001
60747 15120.0 4827.523700000001 1403.7703000000001 4769.9185 -4.545236200000001 -2.8072502 5.4075839
60747 15540.0 2485.0562999999997 120.36686 6466.767900000001 -6.4123001 -3.196445 2.5310408000000004
60747 15960.0 -371.43125000000003 -1188.0772 6823.426 -6.9506821 -2.9249105 -0.8606394900000001
60747 16380.0 -3151.7909 -2251.9574 5770.7833 -6.058243000000001 -2.0532152000000004 -4.061812
60747 16800.0 -5286.0667 -2854.0619 3531.007 -3.9297402000000003 -0.7650754 -6.4156652
60747 17220.0 -6341.4941 -2873.5861 567.97152 -1.0117755 0.67235438 -7.4479044000000005
60747 17640.0 -6109.543000000001 -2309.6718 -2511.2835 2.0940893000000003 1.9654015 -6.9626090000000005
60747 18060.0 -4644.367700000001 -1279.4439 -5082.9494 4.7612223 2.855681 -5.074693
60747 18480.0 -2246.0286 7.9310259 -6631.1350999999995 6.4640395 3.1699511000000005 -2.1722548
60747 18900.0 602.7212 1293.6704 -6845.7903 6.8700099 2.8479038 1.1693043
60747 19320.0 3329.6986 2318.9294 -5679.7164 5.8914928 1.9493759 4.2917474
60747 19740.0 5381.3424 2874.1119 -3360.2783 3.7054845999999997 0.64648894 6.564864
60747 20160.0 6332.2204 2841.5939 -352.88027000000005 0.73935225 -0.80062912 7.5066187
60747 20580.0 5978.125599999999 2223.5858 2726.7623 -2.3982354999999997 -2.0914758 6.8992281
60747 21000.0 4386.7572 1145.4384 5240.2311 -5.046279999999999 -2.9521098 4.8580304
60747 21420.0 1886.982 -169.90126999999998 6665.8025 -6.6472749 -3.2011167 1.812003
60747 21840.0 -1002.9714 -1450.3357 6710.914900000001 -6.8725703000000005 -2.7893697000000004 -1.5988327
60747 22260.0 -3686.8784 -2432.4675 5371.1882000000005 -5.6855341 -1.8064648 -4.6668654
60747 22680.0 -5615.674900000001 -2916.3103 2927.5825 -3.3414303 -0.45859818 -6.7646417
60747 23100.0 -6399.6416 -2805.5351 -115.11021000000001 -0.33005347 0.9755953500000001 -7.4722739
60747 23520.0 -5886.066 -2125.8276 -3135.0215000000003 2.7305231 2.2042163 -6.6611759
60747 23940.0 -4185.7282000000005 -1017.4069000000001 -5521.8251 5.225915 2.9830761000000003 -4.5111561
60747 24360.0 -1644.9542 295.34853999999996 -6797.411400000001 6.6663999 3.1614528 -1.4594973
60747 24780.0 1225.6651000000002 1548.7542 -6705.6613 6.7697036 2.7048373999999997 1.8912398000000001
60747 25200.0 3848.8145 2489.9436 -5259.7971 5.5049643 1.6985829000000001 4.879180000000001
60747 25620.0 5689.9378 2925.4348999999997 -2743.9253 3.1063623 0.33708053000000004 6.895762700000001
60747 26040.0 6365.0951 2761.6393 334.62099 0.048548034000000004 -1.1052297000000002 7.5075772
60747 26460.0 5726.8899 2028.1408000000001 3343.3478 -3.0359541 -2.3268712000000003 6.5662294
60747 26880.0 3902.9899 874.78696 5657.8013 -5.4960231 -3.068449 4.2604296999999995
60747 27300.0 1271.1412 -459.69837 6798.209400000001 -6.815592400000001 -3.1744773 1.0759716000000001
60747 27720.0 -1623.4808 -1699.5176000000001 6531.853099999999 -6.72659 -2.6262387 -2.3197319000000003
60747 28140.0 -4184.7007 -2590.1101000000003 4918.9276 -5.257970500000001 -1.5414713 -5.2243195
60747 28560.0 -5889.7487 -2950.6631 2296.119 -2.7224171999999998 -0.14681063 -7.0460981
60747 28980.0 -6395.5232000000005 -2710.2981 -796.13195 0.35253837 1.2702098000000002 -7.4233623
60747 29400.0 -5606.2702 -1921.0427 -3727.3657000000003 3.3383752 2.4224983000000004 -6.2956718
60747 29820.0 -3687.9182 -744.80452 -5906.5556 5.6390083 3.0824593 -3.9050455000000004
60747 30240.0 -1029.4723000000001 580.9365200000001 -6897.595200000001 6.8043401 3.1228811999999997 -0.7332724100000001
60747 30660.0 1835.3501 1789.9278000000002 -6500.4307 6.604147 2.5352331 2.5949798
60747 31080.0 4329.2955 2637.5692999999997 -4788.707200000001 5.0648764 1.4299819 5.4193639000000005
60747 31500.0 5941.8972 2948.4605 -2101.0009 2.47674 0.022585483 7.1587468
60747 31920.0 6334.7898 2654.2527999999998 1018.1524000000001 -0.6421228800000001 -1.4006161 7.433647
60747 32340.0 5419.1984 1811.8753000000002 3925.9292000000005 -3.6423639 -2.5405577 6.167779800000001
60747 32760.0 3381.3754 594.29115 6018.425 -5.890135 -3.1551965 3.6210038
60747 33180.0 643.86341 -746.3605 6862.7178 -6.9160059 -3.1166953 0.33038515
60747 33600.0 -2226.8208 -1933.3073000000002 6288.0924 -6.5147715 -2.436903 -3.0162938
60747 34020.0 -4640.558599999999 -2723.3493 4418.4191 -4.7801718 -1.260512 -5.7292333
60747 34440.0 -6105.8508 -2956.6739 1642.5345 -2.0786979999999997 0.1674573 -7.2578735
60747 34860.0 -6329.3698 -2588.6007999999997 -1468.9194 1.0295544 1.5536343 -7.3021774
60747 35280.0 -5272.8778 -1696.9346 -4283.151900000001 3.9124086000000005 2.6185809 -5.869758200000001
60747 35700.0 -3155.4628 -463.75337 -6233.9007 5.9972211 3.1531181000000004 -3.2616994
60747 36120.0 -405.00986 862.4814100000001 -6930.8858 6.8768827 3.0544876 0.000299164
60747 36540.0 2426.442 2015.2791000000002 -6231.878 6.3747712000000005 2.3402687 3.2745075000000003
60747 36960.0 4766.9052 2760.574 -4270.549099999999 4.5750134 1.1456210000000002 5.907417000000001
60747 37380.0 6135.0105 2942.9601000000002 -1437.2025 1.8222726 -0.29435965 7.3512367
60747 37800.0 6241.6354 2520.3209 1691.6022 -1.3265470000000001 -1.6842497 7.2855110000000005
60747 38220.0 5057.7972 1576.6392 4469.3035 -4.2122393 -2.730573 5.7074619
60747 38640.0 2826.4654 306.40223 6318.8961 -6.2254057000000005 -3.2115046000000005 2.9454757
60747 39060.0 10.485406000000001 -1027.3542 6858.7088 -6.9479879 -3.0282144 -0.41831743
60747 39480.0 -2808.0276000000003 -2149.6112000000003 5981.593900000001 -6.2392442 -2.2229482 -3.6828624
60747 39900.0 -5050.8018 -2830.9492 3873.6763 -4.256187 -0.9660057799999999 -6.1775751
60747 40320.0 -6262.3593 -2934.1798 972.0528800000001 -1.415705 0.48163984 -7.3983881
60747 40740.0 -6201.8758 -2441.2992999999997 -2128.1591000000003 1.6955989 1.8236066000000002 -7.1097832
60747 41160.0 -4888.7121 -1455.2096999999999 -4798.0175 4.448037500000001 2.7907566000000004 -5.386857600000001
60747 41580.0 -2592.7989 -176.50701 -6501.3249000000005 6.297554900000001 3.1941929 -2.5862741000000002
60747 42000.0 223.16535000000002 1137.5871000000002 -6897.129400000001 6.883127900000001 2.9564674 0.7351733400000001
60747 42420.0 2993.7982 2222.7315 -5902.4276 6.0831155 2.1212754 3.9237691
60747 42840.0 5157.6754 2857.6575000000003 -3710.0840000000003 4.0394624 0.84783849 6.3385096
